[{"OBJECT_NAME":"STARLINK-3294","OBJECT_ID":"2022-001AC","EPOCH":"2026-03-09T12:00:28.690848","MEAN_MOTION":15.08832734,"ECCENTRICITY":0.00014445,"INCLINATION":53.2176,"RA_OF_ASC_NODE":169.9689,"ARG_OF_PERICENTER":103.8917,"MEAN_ANOMALY":256.2236,"EPHEMERIS_TYPE":0,"CLASSIFICATION_TYPE":"U","NORAD_CAT_ID":50829,"ELEMENT_SET_NO":999,"REV_AT_EPOCH":23037,"BSTAR":-3.8126067e-5,"MEAN_MOTION_DOT":-8.95e-6,"MEAN_MOTION_DDOT":0},{"OBJECT_NAME":"JILIN-01 KUANFU 02B 4","OBJECT_ID":"2024-169D","EPOCH":"2026-03-09T23:04:43.463424","MEAN_MOTION":15.0922271,"ECCENTRICITY":0.00080501,"INCLINATION":97.5522,"RA_OF_ASC_NODE":159.355,"ARG_OF_PERICENTER":260.1533,"MEAN_ANOMALY":99.8787,"EPHEMERIS_TYPE":0,"CLASSIFICATION_TYPE":"U","NORAD_CAT_ID":61192,"ELEMENT_SET_NO":999,"REV_AT_EPOCH":8086,"BSTAR":0.00035789888,"MEAN_MOTION_DOT":5.634e-5,"MEAN_MOTION_DDOT":0}]
